SatCatId,ObjectName,LaunchYear,OrbitalPeriod,LaunchMass,StatusCode,Inclination,Status,UcsData,OrbitClassEstimated,LaunchSiteCountry,Owner,UseType,Purpose,LaunchVehicleClass,TLE1,TLE2,MeanMotion,Eccentricity,OrbitClass
23851,MSX,1996,102.98,-1.0,-,98.98,Inactive,0,LEO,USA,USA,Unknown,Unknown,Unknown,1 23851U 96024A   24271.79486793 -.00000136  00000+0 -65009-4 0  9994,2 23851  98.9766 208.9270 0007877 160.5349 199.6116 13.98270468450663,13.98270468,0.0007877,LEO
32050,INSAT-4CR,2007,1451.31,-1.0,-,5.26,Inactive,0,GSO,India,India,Unknown,Unknown,Unknown,1 32050U 07037A   24271.91389345 -.00000275  00000+0  00000+0 0  9998,2 32050   5.2604  77.1715 0002014  93.7356 290.0685  0.99220532 62412,0.99220532,0.0002014,GSO
7476,COSMOS 689,1974,104.93,-1.0,UNK,82.94,Inactive,0,LEO,Russia,Russia/USSR,Unknown,Unknown,Unknown,1 07476U 74079A   24271.52970365  .00000119  00000+0  11298-3 0  9998,2 07476  82.9378 279.6767 0031460  67.2662  52.3430 13.72286016500288,13.72286016,0.003146,LEO
22653,ASTRA 1C,1993,1456.91,-1.0,-,11.98,Inactive,0,GSO,French Guiana,SES,Unknown,Unknown,Unknown,1 22653U 93031A   24271.87001889 -.00000020  00000+0  00000+0 0  9992,2 22653  11.9854  29.9772 0004011 114.1024  80.6486  0.98839172109260,0.98839172,0.0004011,GSO
32052,COSMOS 2429,2007,104.72,-1.0,-,82.98,Inactive,0,LEO,Russia,Russia/USSR,Unknown,Unknown,Unknown,1 32052U 07038A   24272.07360220  .00000126  00000+0  11507-3 0  9992,2 32052  82.9791 308.0745 0038355 184.6050 175.4759 13.75076470855551,13.7507647,0.0038355,LEO
23864,PALAPA C2,1996,1454.54,-1.0,-,10.49,Inactive,0,GSO,French Guiana,Indonesia,Unknown,Unknown,Unknown,1 23864U 96030A   24271.49028166 -.00000021  00000+0  00000+0 0  9995,2 23864  10.4905  43.4252 0008815 115.4848 288.8346  0.99000289103502,0.99000289,0.0008815,GSO
23865,INTELSAT 24 (IS-24),1996,1482.72,-1.0,-,11.48,Inactive,0,GSO,French Guiana,INTELSAT,Unknown,Unknown,Unknown,1 23865U 96030B   24271.53327058 -.00000146  00000+0  00000+0 0  9991,2 23865  11.4776  38.7896 0012669 169.9969 358.7350  0.97118661102470,0.97118661,0.0012669,HEO
43821,FLOCK 3S-2,2018,94.64,-1.0,-,97.52,Inactive,0,LEO,USA,USA,Unknown,Unknown,Unknown,1 43821U 18099BR  24271.58877394  .00040063  00000+0  17734-2 0  9998,2 43821  97.5217 335.0345 0004185 281.8538  78.2229 15.21533356318137,15.21533356,0.0004185,LEO
15677,GSTAR 1,1985,1436.09,-1.0,-,14.56,Inactive,0,GSO,French Guiana,USA,Unknown,Unknown,Unknown,1 15677U 85035A   24271.22467153 -.00000120  00000+0  00000+0 0  9995,2 15677  14.5583 353.4832 0006146 145.1142 203.3745  1.00272546118907,1.00272546,0.0006146,GSO
15678,TELECOM 1B,1985,1436.56,-1.0,-,11.15,Inactive,0,GSO,French Guiana,France,Unknown,Unknown,Unknown,1 15678U 85035B   24271.35412326  .00000053  00000+0  00000+0 0  9996,2 15678  11.1495 325.1431 0002714 222.3673 133.1397  1.00239391130715,1.00239391,0.0002714,GSO
32062,CBERS 2B,2007,99.95,-1.0,-,98.31,Inactive,0,LEO,PRC,China/Brazil,Unknown,Unknown,Unknown,1 32062U 07042A   24272.10002803  .00001014  00000+0  32826-3 0  9996,2 32062  98.3119 219.7647 0032630  64.7742 306.0449 14.40744816894428,14.40744816,0.003263,LEO
7490,METEOR 1-19,1974,102.1,-1.0,UNK,81.19,Inactive,0,LEO,Russia,Russia/USSR,Unknown,Unknown,Unknown,1 07490U 74083A   24271.62184428  .00000195  00000+0  10229-3 0  9994,2 07490  81.1905  33.0156 0030631  56.7269 303.6830 14.10385605566678,14.10385605,0.0030631,LEO
23877,GALAXY 9 (G-9),1996,1446.59,-1.0,-,11.05,Inactive,0,GSO,USA,USA,Unknown,Unknown,Unknown,1 23877U 96033A   24271.59653111 -.00000104  00000+0  00000+0 0  9999,2 23877  11.0455  37.0815 0011529 150.5137 214.7502  0.99544894103455,0.99544894,0.0011529,GSO
23880,GORIZONT 32,1996,1436.99,-1.0,-,14.43,Inactive,0,GSO,Kazakhstan,Russia/USSR,Unknown,Unknown,Unknown,1 23880U 96034A   24266.13174448 -.00000165  00000+0  00000+0 0  9996,2 23880  14.4273 359.7202 0006034 353.1062  40.5023  1.00209761103706,1.00209761,0.0006034,GSO
15697,COSMOS 1650 [GLONASS],1985,675.73,-1.0,-,64.55,Inactive,0,MEO,Kazakhstan,Russia/USSR,Unknown,Unknown,Unknown,1 15697U 85037A   24271.27823841  .00000054  00000+0  00000+0 0  9999,2 15697  64.5502  94.8432 0033238  29.6953 177.6739  2.13102430282913,2.1310243,0.0033238,MEO
15698,COSMOS 1651 [GLONASS],1985,675.67,-1.0,-,64.54,Inactive,0,MEO,Kazakhstan,Russia/USSR,Unknown,Unknown,Unknown,1 15698U 85037B   24271.29623436  .00000053  00000+0  00000+0 0  9999,2 15698  64.5379  94.4085 0014427  24.1046 173.8036  2.13123193306406,2.13123193,0.0014427,MEO
15699,COSMOS 1652 [GLONASS],1985,675.84,-1.0,-,64.53,Inactive,0,MEO,Kazakhstan,Russia/USSR,Unknown,Unknown,Unknown,1 15699U 85037C   24271.30827708  .00000054  00000+0  00000+0 0  9991,2 15699  64.5333  94.6897 0017803  25.2633 130.1403  2.13067481306282,2.13067481,0.0017803,MEO
23907,USA 120,1996,107.17,-1.0,UNK,63.33,Inactive,0,LEO,USA,USA,Unknown,Unknown,Unknown,1 23907U 96029B   24272.07480537  .00001720  00000+0  38563-3 0  9995,2 23907  63.3326  29.5942 0817744  40.6088 325.3076 13.43611922 19293,13.43611922,0.0817744,LEO
23908,USA 121,1996,107.18,-1.0,UNK,63.33,Inactive,0,LEO,USA,USA,Unknown,Unknown,Unknown,1 23908U 96029C   24271.49739565  .00001510  00000+0  33948-3 0  9998,2 23908  63.3323  29.7493 0819314  40.1724 325.7009 13.43567505 18949,13.43567505,0.0819314,LEO
7529,NOAA 4,1974,114.91,-1.0,-,102.0,Inactive,0,LEO,USA,USA,Unknown,Unknown,Unknown,1 07529U 74089A   24271.80018495 -.00000018  00000+0  18053-3 0  9991,2 07529 101.9967 267.0330 0008828 315.0000 100.2375 12.53184706280931,12.53184706,0.0008828,LEO
7531,INTASAT,1974,114.88,-1.0,UNK,101.99,Inactive,0,LEO,USA,Spain,Unknown,Unknown,Unknown,1 07531U 74089C   24271.72636822 -.00000003  00000+0  27492-3 0  9996,2 07531 101.9876 266.5901 0010952 259.7428 276.8460 12.53505221281654,12.53505221,0.0010952,LEO
40300,CHUBUSAT-1,2014,92.17,-1.0,-,97.07,Inactive,0,LEO,Russia,Japan,Unknown,Unknown,Unknown,1 40300U 14070C   24272.08451190  .00086411  00000+0  96567-3 0  9999,2 40300  97.0701 312.0669 0008174  43.0278 317.1618 15.62437057550674,15.62437057,0.0008174,LEO
23915,INTELSAT 709 (IS-709),1996,1451.93,-1.0,-,9.39,Inactive,0,GSO,French Guiana,INTELSAT,Unknown,Unknown,Unknown,1 23915U 96035A   24272.00695470  .00000065  00000+0  00000+0 0  9990,2 23915   9.3872  53.0942 0015268 206.4750 343.8073  0.99178518103167,0.99178518,0.0015268,GSO
40302,TSUBAME,2014,91.35,-1.0,-,97.1,Inactive,0,LEO,Russia,Japan,Unknown,Unknown,Unknown,1 40302U 14070E   24272.07024710  .00230660  00000+0  14008-2 0  9990,2 40302  97.1025 279.4896 0015551  98.1581 262.1450 15.76698479549313,15.76698479,0.0015551,LEO
7544,INTELSAT 4-F8,1974,1443.17,-1.0,-,9.31,Inactive,0,GSO,USA,INTELSAT,Unknown,Unknown,Unknown,1 07544U 74093A   24271.61421362 -.00000029  00000+0  00000+0 0  9994,2 07544   9.3090 309.2147 0005893 197.9896 332.4697  0.99780695118943,0.99780695,0.0005893,GSO
15738,MOLNIYA 3-24,1985,563.24,-1.0,UNK,62.64,Inactive,0,MEO,Russia,Russia/USSR,Unknown,Unknown,Unknown,1 15738U 85040A   24271.36323356 -.00000006  00000+0 -85066-4 0  9994,2 15738  62.6398 277.8368 6894308 250.6322  27.3862  2.55662044325168,2.55662044,0.6894308,MEO
7547,SKYNET 2B,1974,1436.69,-1.0,-,5.16,Inactive,0,GSO,USA,UK,Unknown,Unknown,Unknown,1 07547U 74094A   24271.67688383  .00000047  00000+0  00000+0 0  9991,2 07547   5.1593 286.7717 0004398 214.7236 120.5577  1.00230438118463,1.00230438,0.0004398,GSO
23937,USA 124,1996,98.33,-1.0,UNK,63.29,Inactive,0,LEO,USA,USA,Unknown,Unknown,Unknown,1 23937U 96029F   24271.64204816  .00057534  62718-5  89479-3 0  9990,2 23937  63.2883   5.8748 0555727  75.3231 290.8760 14.64426473 19856,14.64426473,0.0555727,LEO
23940,TOMS EP,1996,98.77,-1.0,UNK,98.44,Inactive,0,LEO,USA,USA,Unknown,Unknown,Unknown,1 23940U 96037A   24272.01329544  .00002428  00000+0  53693-3 0  9992,2 23940  98.4387  56.7174 0026718 344.7381  15.3009 14.57970931500833,14.57970931,0.0026718,LEO
15751,COSMOS 1655,1985,104.97,-1.0,UNK,82.95,Inactive,0,LEO,Russia,Russia/USSR,Unknown,Unknown,Unknown,1 15751U 85041A   24271.71327656  .00000112  00000+0  10660-3 0  9999,2 15751  82.9524 168.6091 0027732  40.3632 337.8675 13.71849128968669,13.71849128,0.0027732,LEO
23943,APSTAR-1A,1996,1451.76,-1.0,-,11.95,Inactive,0,GSO,PRC,China,Unknown,Unknown,Unknown,1 23943U 96039A   24271.96845750  .00000031  00000+0  00000+0 0  9990,2 23943  11.9533  24.0445 0017108 336.2770  35.1288  0.99190410103003,0.9919041,0.0017108,GSO
15755,COSMOS 1656,1985,101.35,-1.0,UNK,71.11,Inactive,0,LEO,Kazakhstan,Russia/USSR,Unknown,Unknown,Unknown,1 15755U 85042A   24271.43918220  .00000310  00000+0  16454-3 0  9993,2 15755  71.1115 159.8198 0037201 241.8547 117.8819 14.20770796 37992,14.20770796,0.0037201,LEO
23948,ARABSAT-2A,1996,1451.23,-1.0,-,13.86,Inactive,0,GSO,French Guiana,Arabsat,Unknown,Unknown,Unknown,1 23948U 96040A   24271.40852219  .00000047  00000+0  00000+0 0  9991,2 23948  13.8611  13.5245 0007718 156.7950 220.7748  0.99226115102631,0.99226115,0.0007718,GSO
23949,TURKSAT 1C,1996,1437.6,-1.0,-,11.08,Inactive,0,GSO,French Guiana,Turkey,Unknown,Unknown,Unknown,1 23949U 96040B   24271.40138618  .00000003  00000+0  00000+0 0  9994,2 23949  11.0847  34.7727 0009206 153.9191  27.2055  1.00166602103384,1.00166602,0.0009206,GSO
23953,NAVSTAR 38 (USA 126),1996,763.13,-1.0,-,55.46,Inactive,0,MEO,USA,USA,Unknown,Unknown,Unknown,1 23953U 96041A   24269.20743727 -.00000017  00000+0  00000+0 0  9994,2 23953  55.4570  68.4549 0060911 100.0193 260.6070  1.88695714202898,1.88695714,0.0060911,MEO
7574,METEOR 1-20,1974,102.0,-1.0,UNK,81.24,Inactive,0,LEO,Russia,Russia/USSR,Unknown,Unknown,Unknown,1 07574U 74099A   24271.79713276  .00000444  00000+0  23671-3 0  9993,2 07574  81.2354 212.7188 0015215 288.8515  71.1006 14.11831140561920,14.1183114,0.0015215,LEO
